STARLINK-1664
1 46553U 20070X   26092.08966181  .00090977  00000+0  20912-2 0  9997
2 46553  53.0487  22.2338 0001816 111.3510 248.7688 15.41929378303727
